     3.02           N: GNSS NAV DATA    E: GALILEO NAV DATA RINEX VERSION / TYPE
NetR9 5.54          Receiver Operator   20241221 030351 UTC PGM / RUN BY / DATE
GAL     .1553D+03  -.7773D+00   .7019D-03   .0000D+00       IONOSPHERIC CORR
GAUT   .2793967724D-08 -.888178420D-15 518400 2345          TIME SYSTEM CORR
GPGA   .6053596735D-08  .182076576D-13 518400 2345          TIME SYSTEM CORR
    18    18  2441     7                                    LEAP SECONDS
                                                            END OF HEADER
E 9 2024 12 21 03 00 00 -.707772036549D-03 -.141540112963D-10  .000000000000D+00
      .120000000000D+03 -.111687500000D+03  .299726770537D-08  .233107144692D+01
     -.534392893314D-05  .228307675570D-03  .766478478909D-05  .544061445045D+04
      .529200000000D+06 -.260770320892D-07  .560272233953D+00  .745058059692D-08
      .969127762438D+00  .178968750000D+03  .480613829781D+00 -.556630328745D-08
     -.175007289756D-09  .516000000000D+03  .234500000000D+04
      .312000000000D+01  .000000000000D+00 -.116415321827D-08 -.465661287308D-09
      .529864000000D+06
E36 2024 12 21 03 00 00 -.327778805513D-03 -.534328137292D-11  .000000000000D+00
      .120000000000D+03  .875000000000D+02  .262618081954D-08 -.104722785311D+01
      .408664345741D-05  .367293250747D-03  .704079866409D-05  .544060402870D+04
      .529200000000D+06  .298023223877D-07 -.152953343500D+01 -.372529029846D-08
      .999706161820D+00  .209218750000D+03 -.112448751050D+01 -.540058209878D-08
      .131791203918D-09  .516000000000D+03  .234500000000D+04
      .312000000000D+01  .000000000000D+00  .162981450558D-08  .302679836750D-08
      .529864000000D+06
E34 2024 12 21 03 00 00 -.152902211994D-03 -.221689333557D-11  .000000000000D+00
      .120000000000D+03  .103718750000D+03  .248903224961D-08 -.715098324133D+00
      .469386577606D-05  .230127712712D-03  .816956162453D-05  .544061007500D+04
      .529200000000D+06 -.111758708954D-07 -.153139717508D+01 -.558793544769D-08
      .999532239878D+00  .184093750000D+03 -.224084292712D+01 -.536665211403D-08
      .141077305007D-09  .516000000000D+03  .234500000000D+04
      .312000000000D+01  .000000000000D+00 -.465661287308D-09  .116415321827D-08
      .529864000000D+06
E 2 2024 12 21 03 00 00  .183894590009D-03  .287059265247D-11  .000000000000D+00
      .120000000000D+03  .336875000000D+02  .334513933848D-08 -.148065616725D+01
      .171549618244D-05  .481417868286D-03  .559166073799D-05  .544061512184D+04
      .529200000000D+06  .149011611938D-07  .266294435226D+01 -.167638063431D-07
      .964941900309D+00  .218687500000D+03  .614570689896D+00 -.572202405956D-08
      .485734518507D-10  .516000000000D+03  .234500000000D+04
      .312000000000D+01  .000000000000D+00 -.535510480404D-08 -.535510480404D-08
      .529864000000D+06
E 5 2024 12 21 03 00 00  .481208186829D-02  .326849658450D-11  .000000000000D+00
      .120000000000D+03 -.113125000000D+03  .307727103783D-08  .361663805686D+00
     -.543147325516D-05  .379981938750D-04  .843778252602D-05  .544060696411D+04
      .529200000000D+06  .931322574615D-08  .559434644596D+00  .372529029846D-08
      .963275051450D+00  .163343750000D+03  .164961726011D+01 -.555594571315D-08
     -.210008747707D-09  .513000000000D+03  .234500000000D+04
      .312000000000D+01  .000000000000D+00 -.232830643654D-09  .931322574615D-09
      .529885000000D+06
E 9 2024 12 21 03 00 00 -.707772036549D-03 -.141540112963D-10  .000000000000D+00
      .120000000000D+03 -.111687500000D+03  .299726770537D-08  .233107144692D+01
     -.534392893314D-05  .228307675570D-03  .766478478909D-05  .544061445045D+04
      .529200000000D+06 -.260770320892D-07  .560272233953D+00  .745058059692D-08
      .969127762438D+00  .178968750000D+03  .480613829781D+00 -.556630328745D-08
     -.175007289756D-09  .513000000000D+03  .234500000000D+04
      .312000000000D+01  .000000000000D+00 -.116415321827D-08 -.465661287308D-09
      .529885000000D+06
E24 2024 12 21 03 00 00 -.116672477452D-02 -.213731254917D-10  .000000000000D+00
      .120000000000D+03  .431562500000D+02  .336156859425D-08 -.172919692125D+00
      .192224979401D-05  .748712569475D-03  .556558370590D-05  .544062079430D+04
      .529200000000D+06  .745058059692D-08  .266248044046D+01  .130385160446D-07
      .962360233184D+00  .222500000000D+03  .875215549086D+00 -.572202405956D-08
      .571452374714D-11  .513000000000D+03  .234500000000D+04
      .312000000000D+01  .000000000000D+00 -.605359673500D-08 -.628642737865D-08
      .529885000000D+06
E 2 2024 12 21 03 00 00  .183894590009D-03  .287059265247D-11  .000000000000D+00
      .120000000000D+03  .336875000000D+02  .334513933848D-08 -.148065616725D+01
      .171549618244D-05  .481417868286D-03  .559166073799D-05  .544061512184D+04
      .529200000000D+06  .149011611938D-07  .266294435226D+01 -.167638063431D-07
      .964941900309D+00  .218687500000D+03  .614570689896D+00 -.572202405956D-08
      .485734518507D-10  .513000000000D+03  .234500000000D+04
      .312000000000D+01  .000000000000D+00 -.535510480404D-08 -.535510480404D-08
      .529885000000D+06
E34 2024 12 21 03 00 00 -.152902211994D-03 -.221689333557D-11  .000000000000D+00
      .120000000000D+03  .103718750000D+03  .248903224961D-08 -.715098324133D+00
      .469386577606D-05  .230127712712D-03  .816956162453D-05  .544061007500D+04
      .529200000000D+06 -.111758708954D-07 -.153139717508D+01 -.558793544769D-08
      .999532239878D+00  .184093750000D+03 -.224084292712D+01 -.536665211403D-08
      .141077305007D-09  .513000000000D+03  .234500000000D+04
      .312000000000D+01  .000000000000D+00 -.465661287308D-09  .116415321827D-08
      .529885000000D+06
E36 2024 12 21 03 00 00 -.327778805513D-03 -.534328137292D-11  .000000000000D+00
      .120000000000D+03  .875000000000D+02  .262618081954D-08 -.104722785311D+01
      .408664345741D-05  .367293250747D-03  .704079866409D-05  .544060402870D+04
      .529200000000D+06  .298023223877D-07 -.152953343500D+01 -.372529029846D-08
      .999706161820D+00  .209218750000D+03 -.112448751050D+01 -.540058209878D-08
      .131791203918D-09  .513000000000D+03  .234500000000D+04
      .312000000000D+01  .000000000000D+00  .162981450558D-08  .302679836750D-08
      .529885000000D+06
E 5 2024 12 21 03 00 00  .481208047131D-02  .326849658450D-11  .000000000000D+00
      .120000000000D+03 -.113125000000D+03  .307727103783D-08  .361663805686D+00
     -.543147325516D-05  .379981938750D-04  .843778252602D-05  .544060696411D+04
      .529200000000D+06  .931322574615D-08  .559434644596D+00  .372529029846D-08
      .963275051450D+00  .163343750000D+03  .164961726011D+01 -.555594571315D-08
     -.210008747707D-09  .258000000000D+03  .234500000000D+04
      .312000000000D+01  .000000000000D+00 -.232830643654D-09  .000000000000D+00
      .529920000000D+06
E36 2024 12 21 03 00 00 -.327780493535D-03 -.534328137292D-11  .000000000000D+00
      .120000000000D+03  .875000000000D+02  .262618081954D-08 -.104722785311D+01
      .408664345741D-05  .367293250747D-03  .704079866409D-05  .544060402870D+04
      .529200000000D+06  .298023223877D-07 -.152953343500D+01 -.372529029846D-08
      .999706161820D+00  .209218750000D+03 -.112448751050D+01 -.540058209878D-08
      .131791203918D-09  .258000000000D+03  .234500000000D+04
      .312000000000D+01  .000000000000D+00  .162981450558D-08  .000000000000D+00
      .529920000000D+06
E 2 2024 12 21 03 00 00  .183894531801D-03  .287059265247D-11  .000000000000D+00
      .120000000000D+03  .336875000000D+02  .334513933848D-08 -.148065616725D+01
      .171549618244D-05  .481417868286D-03  .559166073799D-05  .544061512184D+04
      .529200000000D+06  .149011611938D-07  .266294435226D+01 -.167638063431D-07
      .964941900309D+00  .218687500000D+03  .614570689896D+00 -.572202405956D-08
      .485734518507D-10  .258000000000D+03  .234500000000D+04
      .312000000000D+01  .000000000000D+00 -.535510480404D-08  .000000000000D+00
      .529920000000D+06
E34 2024 12 21 03 00 00 -.152904132847D-03 -.221689333557D-11  .000000000000D+00
      .120000000000D+03  .103718750000D+03  .248903224961D-08 -.715098324133D+00
      .469386577606D-05  .230127712712D-03  .816956162453D-05  .544061007500D+04
      .529200000000D+06 -.111758708954D-07 -.153139717508D+01 -.558793544769D-08
      .999532239878D+00  .184093750000D+03 -.224084292712D+01 -.536665211403D-08
      .141077305007D-09  .258000000000D+03  .234500000000D+04
      .312000000000D+01  .000000000000D+00 -.465661287308D-09  .000000000000D+00
      .529920000000D+06
E24 2024 12 21 03 00 00 -.116672489094D-02 -.213731254917D-10  .000000000000D+00
      .120000000000D+03  .431562500000D+02  .336156859425D-08 -.172919692125D+00
      .192224979401D-05  .748712569475D-03  .556558370590D-05  .544062079430D+04
      .529200000000D+06  .745058059692D-08  .266248044046D+01  .130385160446D-07
      .962360233184D+00  .222500000000D+03  .875215549086D+00 -.572202405956D-08
      .571452374714D-11  .258000000000D+03  .234500000000D+04
      .312000000000D+01  .000000000000D+00 -.605359673500D-08  .000000000000D+00
      .529920000000D+06
E 9 2024 12 21 03 00 00 -.707773142494D-03 -.141540112963D-10  .000000000000D+00
      .120000000000D+03 -.111687500000D+03  .299726770537D-08  .233107144692D+01
     -.534392893314D-05  .228307675570D-03  .766478478909D-05  .544061445045D+04
      .529200000000D+06 -.260770320892D-07  .560272233953D+00  .745058059692D-08
      .969127762438D+00  .178968750000D+03  .480613829781D+00 -.556630328745D-08
     -.175007289756D-09  .258000000000D+03  .234500000000D+04
      .312000000000D+01  .000000000000D+00 -.116415321827D-08  .000000000000D+00
      .529920000000D+06
